{
  "type": "FeatureCollection",
  "features": [
    {
      "type": "Feature",
      "properties": {
        "norad_id": 66583,
        "name": "STARLINK-35941",
        "group": "last-30-days",
        "lat": 35.42563574947137,
        "lon": -145.20137003893907,
        "alt_km": 411.36413162487133,
        "timestamp": "2025-12-18T23:35:47.780497+00:00",
        "meta_object_name": "STARLINK-35941",
        "meta_object_id": "2025-268AC",
        "meta_epoch": "2025-12-18T13:47:55.292064",
        "meta_mean_motion": 15.5059531,
        "meta_eccentricity": 0.00036374,
        "meta_inclination": 42.9999,
        "meta_ra_of_asc_node": 86.949,
        "meta_arg_of_pericenter": 277.8009,
        "meta_mean_anomaly": 82.2438,
        "meta_ephemeris_type": 0,
        "meta_classification_type": "U",
        "meta_norad_cat_id": 66583,
        "meta_element_set_no": 999,
        "meta_rev_at_epoch": 553,
        "meta_bstar": 0.0019257968,
        "meta_mean_motion_dot": 0.00114384,
        "meta_mean_motion_ddot": 0,
        "tle_line1": "1 66583U 25268AC  25352.57494551  .00114384  00000+0  19258-2 0  9995",
        "tle_line2": "2 66583  42.9999  86.9490 0003637 277.8009  82.2438 15.50595310  5534"
      },
      "geometry": {
        "type": "Point",
        "coordinates": [
          -145.20137003893907,
          35.42563574947137
        ]
      }
    },
    {
      "type": "Feature",
      "properties": {
        "norad_id": 66584,
        "name": "STARLINK-35939",
        "group": "last-30-days",
        "lat": 34.54313192922335,
        "lon": -143.0709006008301,
        "alt_km": 410.53404077103005,
        "timestamp": "2025-12-18T23:35:47.780510+00:00",
        "meta_object_name": "STARLINK-35939",
        "meta_object_id": "2025-268AD",
        "meta_epoch": "2025-12-18T13:47:25.569600",
        "meta_mean_motion": 15.50609081,
        "meta_eccentricity": 0.00021101,
        "meta_inclination": 42.9997,
        "meta_ra_of_asc_node": 86.9444,
        "meta_arg_of_pericenter": 279.7649,
        "meta_mean_anomaly": 80.2973,
        "meta_ephemeris_type": 0,
        "meta_classification_type": "U",
        "meta_norad_cat_id": 66584,
        "meta_element_set_no": 999,
        "meta_rev_at_epoch": 553,
        "meta_bstar": 0.0016835386,
        "meta_mean_motion_dot": 0.00099801,
        "meta_mean_motion_ddot": 0,
        "tle_line1": "1 66584U 25268AD  25352.57460150  .00099801  00000+0  16835-2 0  9998",
        "tle_line2": "2 66584  42.9997  86.9444 0002110 279.7649  80.2973 15.50609081  5531"
      },
      "geometry": {
        "type": "Point",
        "coordinates": [
          -143.0709006008301,
          34.54313192922335
        ]
      }
    },
    {
      "type": "Feature",
      "properties": {
        "norad_id": 66585,
        "name": "STARLINK-35963",
        "group": "last-30-days",
        "lat": 33.645463833531714,
        "lon": -141.03105266227138,
        "alt_km": 410.3438398979997,
        "timestamp": "2025-12-18T23:35:47.780520+00:00",
        "meta_object_name": "STARLINK-35963",
        "meta_object_id": "2025-268AE",
        "meta_epoch": "2025-12-18T13:46:55.921440",
        "meta_mean_motion": 15.50604061,
        "meta_eccentricity": 0.00016316,
        "meta_inclination": 42.9994,
        "meta_ra_of_asc_node": 86.9421,
        "meta_arg_of_pericenter": 274.8944,
        "meta_mean_anomaly": 85.173,
        "meta_ephemeris_type": 0,
        "meta_classification_type": "U",
        "meta_norad_cat_id": 66585,
        "meta_element_set_no": 999,
        "meta_rev_at_epoch": 553,
        "meta_bstar": 0.0016267314,
        "meta_mean_motion_dot": 0.0009636,
        "meta_mean_motion_ddot": 0,
        "tle_line1": "1 66585U 25268AE  25352.57425835  .00096360  00000+0  16267-2 0  9996",
        "tle_line2": "2 66585  42.9994  86.9421 0001631 274.8944  85.1730 15.50604061  5533"
      },
      "geometry": {
        "type": "Point",
        "coordinates": [
          -141.03105266227138,
          33.645463833531714
        ]
      }
    },
    {
      "type": "Feature",
      "properties": {
        "norad_id": 66586,
        "name": "TJS-21",
        "group": "last-30-days",
        "lat": 61.61328367157186,
        "lon": -87.22698577660515,
        "alt_km": 36823.78806143645,
        "timestamp": "2025-12-18T23:35:47.780533+00:00",
        "meta_object_name": "TJS-21",
        "meta_object_id": "2025-269A",
        "meta_epoch": "2025-12-15T05:12:47.484864",
        "meta_mean_motion": 2.00575027,
        "meta_eccentricity": 0.68062948,
        "meta_inclination": 63.2717,
        "meta_ra_of_asc_node": 162.0883,
        "meta_arg_of_pericenter": 269.7594,
        "meta_mean_anomaly": 18.6638,
        "meta_ephemeris_type": 0,
        "meta_classification_type": "U",
        "meta_norad_cat_id": 66586,
        "meta_element_set_no": 999,
        "meta_rev_at_epoch": 48,
        "meta_bstar": -0.049388688,
        "meta_mean_motion_dot": 1.099e-05,
        "meta_mean_motion_ddot": 0,
        "tle_line1": "1 66586U 25269A   25349.21721626  .00001099  00000+0 -49389-1 0  9998",
        "tle_line2": "2 66586  63.2717 162.0883 6806294 269.7594  18.6638  2.00575027   486"
      },
      "geometry": {
        "type": "Point",
        "coordinates": [
          -87.22698577660515,
          61.61328367157186
        ]
      }
    },
    {
      "type": "Feature",
      "properties": {
        "norad_id": 66587,
        "name": "CZ-3B R/B",
        "group": "last-30-days",
        "lat": 47.31342280356184,
        "lon": -131.4334805960137,
        "alt_km": 32143.940754093248,
        "timestamp": "2025-12-18T23:35:47.780547+00:00",
        "meta_object_name": "CZ-3B R/B",
        "meta_object_id": "2025-269B",
        "meta_epoch": "2025-12-17T04:50:14.865216",
        "meta_mean_motion": 2.03937792,
        "meta_eccentricity": 0.75168551,
        "meta_inclination": 51.3435,
        "meta_ra_of_asc_node": 168.6023,
        "meta_arg_of_pericenter": 229.5038,
        "meta_mean_anomaly": 36.3416,
        "meta_ephemeris_type": 0,
        "meta_classification_type": "U",
        "meta_norad_cat_id": 66587,
        "meta_element_set_no": 999,
        "meta_rev_at_epoch": 54,
        "meta_bstar": 0.00055683527,
        "meta_mean_motion_dot": 0.00072738,
        "meta_mean_motion_ddot": -9.18653e-07,
        "tle_line1": "1 66587U 25269B   25351.20156094  .00072738 -91865-6  55684-3 0  9993",
        "tle_line2": "2 66587  51.3435 168.6023 7516855 229.5038  36.3416  2.03937792   541"
      },
      "geometry": {
        "type": "Point",
        "coordinates": [
          -131.4334805960137,
          47.31342280356184
        ]
      }
    },
    {
      "type": "Feature",
      "properties": {
        "norad_id": 66588,
        "name": "STARLINK-36076",
        "group": "last-30-days",
        "lat": 34.94145285119819,
        "lon": -71.77451115115603,
        "alt_km": 439.2966399174602,
        "timestamp": "2025-12-18T23:35:47.780560+00:00",
        "meta_object_name": "STARLINK-36076",
        "meta_object_id": "2025-270A",
        "meta_epoch": "2025-12-18T13:43:51.692448",
        "meta_mean_motion": 15.40726,
        "meta_eccentricity": 0.0002099,
        "meta_inclination": 42.9983,
        "meta_ra_of_asc_node": 159.1703,
        "meta_arg_of_pericenter": 253.8213,
        "meta_mean_anomaly": 106.2412,
        "meta_ephemeris_type": 0,
        "meta_classification_type": "U",
        "meta_norad_cat_id": 66588,
        "meta_element_set_no": 999,
        "meta_rev_at_epoch": 524,
        "meta_bstar": 0.00091004286,
        "meta_mean_motion_dot": 0.00037934,
        "meta_mean_motion_ddot": 0,
        "tle_line1": "1 66588U 25270A   25352.57212607  .00037934  00000+0  91004-3 0  9998",
        "tle_line2": "2 66588  42.9983 159.1703 0002099 253.8213 106.2412 15.40726000  5242"
      },
      "geometry": {
        "type": "Point",
        "coordinates": [
          -71.77451115115603,
          34.94145285119819
        ]
      }
    },
    {
      "type": "Feature",
      "properties": {
        "norad_id": 66589,
        "name": "STARLINK-35447",
        "group": "last-30-days",
        "lat": -27.289807146938095,
        "lon": 10.180830568295844,
        "alt_km": 446.22076933483913,
        "timestamp": "2025-12-18T23:35:47.780571+00:00",
        "meta_object_name": "STARLINK-35447",
        "meta_object_id": "2025-270B",
        "meta_epoch": "2025-12-18T16:00:00.999936",
        "meta_mean_motion": 15.40713528,
        "meta_eccentricity": 0.00014415,
        "meta_inclination": 42.9989,
        "meta_ra_of_asc_node": 158.3866,
        "meta_arg_of_pericenter": 292.9295,
        "meta_mean_anomaly": 331.6293,
        "meta_ephemeris_type": 0,
        "meta_classification_type": "U",
        "meta_norad_cat_id": 66589,
        "meta_element_set_no": 999,
        "meta_rev_at_epoch": 546,
        "meta_bstar": 0.00020499971,
        "meta_mean_motion_dot": 8.273e-05,
        "meta_mean_motion_ddot": 0,
        "tle_line1": "1 66589U 25270B   25352.66667824  .00008273  00000+0  20500-3 0  9991",
        "tle_line2": "2 66589  42.9989 158.3866 0001441 292.9295 331.6293 15.40713528  5460"
      },
      "geometry": {
        "type": "Point",
        "coordinates": [
          10.180830568295844,
          -27.289807146938095
        ]
      }
    }
  ]
}